[{"OBJECT_NAME":"ORBITER SN3","OBJECT_ID":"2023-084AE","EPOCH":"2026-03-09T23:12:21.976128","MEAN_MOTION":15.32943891,"ECCENTRICITY":0.00075889,"INCLINATION":97.61,"RA_OF_ASC_NODE":206.6768,"ARG_OF_PERICENTER":331.7947,"MEAN_ANOMALY":28.2883,"EPHEMERIS_TYPE":0,"CLASSIFICATION_TYPE":"U","NORAD_CAT_ID":56960,"ELEMENT_SET_NO":999,"REV_AT_EPOCH":15228,"BSTAR":0.00032835432,"MEAN_MOTION_DOT":0.00010378,"MEAN_MOTION_DDOT":0},{"OBJECT_NAME":"YAOGAN-43 01A","OBJECT_ID":"2024-148A","EPOCH":"2026-03-10T00:09:07.136640","MEAN_MOTION":15.32738016,"ECCENTRICITY":0.00034906,"INCLINATION":35.0055,"RA_OF_ASC_NODE":53.2215,"ARG_OF_PERICENTER":348.6469,"MEAN_ANOMALY":11.4169,"EPHEMERIS_TYPE":0,"CLASSIFICATION_TYPE":"U","NORAD_CAT_ID":60458,"ELEMENT_SET_NO":999,"REV_AT_EPOCH":8720,"BSTAR":0.00060147276,"MEAN_MOTION_DOT":0.00019533,"MEAN_MOTION_DDOT":0}]
